{
    "links": {
        "self": "http://www.neowsapp.com/rest/v1/neo/54065900?api_key=iIulBulltgU6a56xZRHN4H3l9WmuAYTsLGpBGhQ2"
    },
    "id": "54065900",
    "neo_reference_id": "54065900",
    "name": "(2020 TR5)",
    "designation": "2020 TR5",
    "nasa_jpl_url": "http://ssd.jpl.nasa.gov/sbdb.cgi?sstr=54065900",
    "absolute_magnitude_h": 26.235,
    "estimated_diameter": {
        "kilometers": {
            "estimated_diameter_min": 0.0150506403,
            "estimated_diameter_max": 0.0336542548
        },
        "meters": {
            "estimated_diameter_min": 15.0506403026,
            "estimated_diameter_max": 33.6542548216
        },
        "miles": {
            "estimated_diameter_min": 0.0093520314,
            "estimated_diameter_max": 0.020911778
        },
        "feet": {
            "estimated_diameter_min": 49.3787427305,
            "estimated_diameter_max": 110.4142253889
        }
    },
    "is_potentially_hazardous_asteroid": false,
    "close_approach_data": [
        {
            "close_approach_date": "1903-01-29",
            "close_approach_date_full": "1903-Jan-29 00:43",
            "epoch_date_close_approach": -2111959020000,
            "relative_velocity": {
                "kilometers_per_second": "19.1493901976",
                "kilometers_per_hour": "68937.8047115119",
                "miles_per_hour": "42835.2709331058"
            },
            "miss_distance": {
                "astronomical": "0.3561490556",
                "lunar": "138.5419826284",
                "kilometers": "53279140.120271572",
                "miles": "33106122.5194368136"
            },
            "orbiting_body": "Earth"
        },
        {
            "close_approach_date": "2020-10-28",
            "close_approach_date_full": "2020-Oct-28 06:10",
            "epoch_date_close_approach": 1603865400000,
            "relative_velocity": {
                "kilometers_per_second": "8.7947951867",
                "kilometers_per_hour": "31661.2626719971",
                "miles_per_hour": "19673.0773530529"
            },
            "miss_distance": {
                "astronomical": "0.010338517",
                "lunar": "4.021683113",
                "kilometers": "1546620.12215879",
                "miles": "961025.180579702"
            },
            "orbiting_body": "Earth"
        },
        {
            "close_approach_date": "2026-01-27",
            "close_approach_date_full": "2026-Jan-27 05:39",
            "epoch_date_close_approach": 1769492340000,
            "relative_velocity": {
                "kilometers_per_second": "17.3192017769",
                "kilometers_per_hour": "62349.1263969077",
                "miles_per_hour": "38741.3224547897"
            },
            "miss_distance": {
                "astronomical": "0.295673824",
                "lunar": "115.017117536",
                "kilometers": "44232174.28515488",
                "miles": "27484598.623022144"
            },
            "orbiting_body": "Earth"
        },
        {
            "close_approach_date": "2132-10-25",
            "close_approach_date_full": "2132-Oct-25 19:08",
            "epoch_date_close_approach": 5138017680000,
            "relative_velocity": {
                "kilometers_per_second": "9.5562389695",
                "kilometers_per_hour": "34402.4602902721",
                "miles_per_hour": "21376.3509509194"
            },
            "miss_distance": {
                "astronomical": "0.0350218902",
                "lunar": "13.6235152878",
                "kilometers": "5239200.177293874",
                "miles": "3255488.0311845012"
            },
            "orbiting_body": "Earth"
        },
        {
            "close_approach_date": "2138-01-26",
            "close_approach_date_full": "2138-Jan-26 17:07",
            "epoch_date_close_approach": 5303812020000,
            "relative_velocity": {
                "kilometers_per_second": "15.7536771382",
                "kilometers_per_hour": "56713.2376975754",
                "miles_per_hour": "35239.400390474"
            },
            "miss_distance": {
                "astronomical": "0.2449131015",
                "lunar": "95.2711964835",
                "kilometers": "36638478.319493805",
                "miles": "22766094.749892309"
            },
            "orbiting_body": "Earth"
        }
    ],
    "orbital_data": {
        "orbit_id": "8",
        "orbit_determination_date": "2020-10-30 07:14:25",
        "first_observation_date": "2020-10-10",
        "last_observation_date": "2020-10-30",
        "data_arc_in_days": 20,
        "observations_used": 72,
        "orbit_uncertainty": "7",
        "minimum_orbit_intersection": ".00375252",
        "jupiter_tisserand_invariant": "3.817",
        "epoch_osculation": "2459000.5",
        "eccentricity": ".4951119580724678",
        "semi_major_axis": "1.874503904796664",
        "inclination": "3.637711836655859",
        "ascending_node_longitude": "34.38975250373762",
        "orbital_period": "937.4064793406487",
        "perihelion_distance": ".9464146060783009",
        "perihelion_argument": "34.21692372428542",
        "aphelion_distance": "2.802593203515026",
        "perihelion_time": "2459177.055757245303",
        "mean_anomaly": "292.1958253872791",
        "mean_motion": ".3840383098836869",
        "equinox": "J2000",
        "orbit_class": {
            "orbit_class_type": "APO",
            "orbit_class_description": "Near-Earth asteroid orbits which cross the Earth’s orbit similar to that of 1862 Apollo",
            "orbit_class_range": "a (semi-major axis) > 1.0 AU; q (perihelion) < 1.017 AU"
        }
    },
    "is_sentry_object": false
}